[{"OBJECT_NAME":"STARLINK-1954","OBJECT_ID":"2021-009H","EPOCH":"2026-03-09T23:20:25.352160","MEAN_MOTION":15.30849174,"ECCENTRICITY":0.00046184,"INCLINATION":53.0574,"RA_OF_ASC_NODE":8.8654,"ARG_OF_PERICENTER":103.3293,"MEAN_ANOMALY":256.8222,"EPHEMERIS_TYPE":0,"CLASSIFICATION_TYPE":"U","NORAD_CAT_ID":47555,"ELEMENT_SET_NO":999,"REV_AT_EPOCH":28100,"BSTAR":0.0022371791,"MEAN_MOTION_DOT":0.00067883,"MEAN_MOTION_DDOT":0},{"OBJECT_NAME":"STARLINK-34392","OBJECT_ID":"2025-130P","EPOCH":"2026-03-09T11:00:16.044192","MEAN_MOTION":15.30191197,"ECCENTRICITY":0.00013373,"INCLINATION":53.1595,"RA_OF_ASC_NODE":89.8922,"ARG_OF_PERICENTER":93.8643,"MEAN_ANOMALY":266.2511,"EPHEMERIS_TYPE":0,"CLASSIFICATION_TYPE":"U","NORAD_CAT_ID":64451,"ELEMENT_SET_NO":999,"REV_AT_EPOCH":4066,"BSTAR":0.0012063987,"MEAN_MOTION_DOT":0.00035532,"MEAN_MOTION_DDOT":0}]
